METEOSAT-10 (MSG-3)     
1 38552U 12035B   24176.16841807  .00000002  00000+0  00000+0 0  9999
2 38552   2.9802  61.0490 0000694 338.0527 294.4603  1.00267835 43965
METOP-B                 
1 38771U 12049A   24176.14163808  .00000175  00000+0  99678-4 0  9998
2 38771  98.6275 233.2091 0001540  90.0145 270.1209 14.21441722610538
INSAT-3D                
1 39216U 13038B   24176.08938274 -.00000146  00000+0  00000+0 0  9997
2 39216   0.0573 101.7097 0000556 137.6665 147.6190  1.00271716 40055
FENGYUN 3C              
1 39260U 13052A   24176.23200530  .00000121  00000+0  81980-4 0  9999
2 39260  98.4281 175.4648 0010095 311.5475  48.4834 14.16220530556326
METEOR-M 2              
1 40069U 14037A   24176.14232555  .00000140  00000+0  83701-4 0  9998
2 40069  98.4361 170.0692 0005471 351.3928   8.7155 14.20982986516619
HIMAWARI-8              
1 40267U 14060A   24175.33761476 -.00000263  00000+0  00000+0 0  9996
2 40267   0.0576 123.0144 0000873 354.1070  57.0770  1.00269823 35502
FENGYUN 2G              
1 40367U 14090A   24176.11669090 -.00000294  00000+0  00000+0 0  9990
2 40367   3.8076  81.4659 0003097 108.3695 224.6106  1.00266993 34789
METEOSAT-11 (MSG-4)     
1 40732U 15034A   24171.59020498  .00000087  00000+0  00000+0 0  9994
2 40732   1.3918  69.1738 0001876 153.3473 267.8398  1.00279855   552
ELEKTRO-L 2             
1 41105U 15074A   24176.09397799 -.00000109  00000+0  00000+0 0  9990
2 41105   4.8585  79.3941 0000667 130.5556  82.1578  1.00270784 31262
INSAT-3DR               
1 41752U 16054A   24175.75372931 -.00000066  00000+0  00000+0 0  9992
2 41752   0.1190  93.5788 0010019 174.3648 349.7948  1.00271540 28561
HIMAWARI-9              
1 41836U 16064A   24176.01924414 -.00000264  00000+0  00000+0 0  9995
2 41836   0.0087  97.4934 0001103   5.3597 317.4936  1.00272829 28058
GOES 16                 
1 41866U 16071A   24176.15342334 -.00000238  00000+0  00000+0 0  9997
2 41866   0.0737 251.1311 0000549 192.8194 168.8745  1.00272262 27842
FENGYUN 4A              
1 41882U 16077A   24175.88313410 -.00000191  00000+0  00000+0 0  9991
2 41882   0.4745  85.7749 0008384 345.2044 246.4048  1.00268078 27672
CYGFM05                 
1 41884U 16078A   24175.61861690  .00008452  00000+0  30999-3 0  9994
2 41884  34.9550 260.3641 0012304 254.8528 105.0826 15.27151083417062
CYGFM04                 
1 41885U 16078B   24175.53708880  .00007980  00000+0  28494-3 0  9999
2 41885  34.9415 244.8891 0009752 276.8376  83.1229 15.28066288417140
CYGFM02                 
1 41886U 16078C   24175.62581133  .00008007  00000+0  28287-3 0  9991
2 41886  34.9515 246.5685 0012545 265.2148  94.7135 15.28384858417246
CYGFM01                 
1 41887U 16078D   24175.60185388  .00007641  00000+0  28202-3 0  9992
2 41887  34.9482 264.3209 0011901 243.2469 116.7028 15.26967531417112
CYGFM08                 
1 41888U 16078E   24175.55005755  .00007790  00000+0  27950-3 0  9990
2 41888  34.9490 252.7641 0012937 267.3051  92.6183 15.27876265417193
CYGFM07                 
1 41890U 16078G   24176.24455986  .00008764  00000+0  31145-3 0  9998
2 41890  34.9483 239.7944 0009602 281.1337  78.8298 15.28204796417418
CYGFM03                 
1 41891U 16078H   24175.56127692  .00007968  00000+0  28410-3 0  9999
2 41891  34.9495 245.3228 0010569 259.0158 100.9369 15.28104483417293
FENGYUN 3D              
1 43010U 17072A   24176.14417155  .00000124  00000+0  80691-4 0  9997
2 43010  98.9110 130.8396 0001245   7.0216 353.0977 14.19360461342408
NOAA 20 (JPSS-1)        
1 43013U 17073A   24176.17875483  .00000092  00000+0  64083-4 0  9997
2 43013  98.7065 113.9838 0001229 132.9867 227.1412 14.19599223341890
GOES 17                 
1 43226U 18022A   24176.14759282 -.00000081  00000+0  00000+0 0  9996
2 43226   0.0417 206.7275 0001133 282.4021  92.0879  1.00270805 23189
FENGYUN 2H              
1 43491U 18050A   24175.89784348 -.00000118  00000+0  00000+0 0  9994
2 43491   1.1597  87.2513 0001872  36.8699 190.8466  1.00268483 22180
METOP-C                 
1 43689U 18087A   24176.18019196  .00000176  00000+0  10059-3 0  9990
2 43689  98.7231 235.3752 0003076  79.6545 280.4979 14.21478043292119
GEO-KOMPSAT-2A          
1 43823U 18100A   24175.97922517 -.00000333  00000+0  00000+0 0  9999
2 43823   0.0506 133.8206 0002406 317.0797 302.5059  1.00270780 20418
METEOR-M2 2             
1 44387U 19038A   24176.17743269  .00000041  00000+0  37372-4 0  9996
2 44387  98.8269 145.4286 0000769   6.3917 353.7271 14.23895760258387
ARKTIKA-M 1             
1 47719U 21016A   24173.73801457  .00000180  00000+0  00000+0 0  9997
2 47719  63.1392 151.2542 6942940 268.6906  17.9282  2.00609316 24232
FENGYUN 3E              
1 49008U 21062A   24176.18341085  .00000024  00000+0  31857-4 0  9995
2 49008  98.7316 177.3683 0002187  44.6204 315.5147 14.19760123153986
GOES 18                 
1 51850U 22021A   24175.40882774  .00000109  00000+0  00000+0 0  9993
2 51850   0.0050  78.5621 0000534  12.1888 191.4902  1.00272335  8518
NOAA 21 (JPSS-2)        
1 54234U 22150A   24175.86183930  .00000111  00000+0  73475-4 0  9997
2 54234  98.7518 113.6774 0001851 101.0549 259.0835 14.19529091 83927
METEOSAT-12 (MTG-I1)    
1 54743U 22170C   24175.88203784  .00000004  00000+0  00000+0 0  9996
2 54743   0.5221  42.5953 0001889  48.3303 138.7063  1.00274441  5725
TIANMU-1 03             
1 55973U 23039A   24176.15579047  .00008184  00000+0  34992-3 0  9994
2 55973  97.4696 326.7341 0007609 140.8273 219.3516 15.23075316 69910
TIANMU-1 04             
1 55974U 23039B   24176.13913039  .00007655  00000+0  32883-3 0  9995
2 55974  97.4619 326.2713 0007760 141.2207 218.9587 15.22936600 69907
TIANMU-1 05             
1 55975U 23039C   24176.18846791  .00000144  00000+0  91346-5 0  9998
2 55975  97.4663 326.6530 0006342 153.4213 206.7350 15.22980722 69902
TIANMU-1 06             
1 55976U 23039D   24176.17217304  .00001366  00000+0  61033-4 0  9996
2 55976  97.4677 326.7551 0006441 156.6024 203.5507 15.23035249 69902
METEOR-M2 3             
1 57166U 23091A   24176.14237173  .00000034  00000+0  34273-4 0  9997
2 57166  98.7123 230.7536 0005124 106.6063 253.5679 14.23900332 51614
TIANMU-1 07             
1 57399U 23101A   24176.21846127  .00005224  00000+0  26574-3 0  9990
2 57399  97.3623 233.1742 0006073 149.6993 210.4593 15.17239525 51497
TIANMU-1 08             
1 57400U 23101B   24176.18778375  .00005348  00000+0  27183-3 0  9992
2 57400  97.3611 233.0166 0008106 158.5744 201.5831 15.17250044 51482
TIANMU-1 09             
1 57401U 23101C   24176.10481621  .00006074  00000+0  30834-3 0  9994
2 57401  97.3566 232.7742 0008633 155.5390 204.6255 15.17231957 51472
TIANMU-1 10             
1 57402U 23101D   24176.20298534  .00005251  00000+0  26704-3 0  9992
2 57402  97.3646 233.1519 0010820 155.7625 204.4120 15.17212252 51480
FENGYUN 3F              
1 57490U 23111A   24176.20789945  .00000102  00000+0  68850-4 0  9990
2 57490  98.7695 245.2746 0001954  84.7835 275.3564 14.19828744 46263
ARKTIKA-M 2             
1 58584U 23198A   24169.48278552  .00000150  00000+0  00000+0 0  9990
2 58584  63.2417 235.5556 6979408 269.9021  17.2518  2.00611967  3681
TIANMU-1 11             
1 58645U 23205A   24176.18566915  .00004574  00000+0  24677-3 0  9999
2 58645  97.4019 201.0944 0011979  29.4245 330.7659 15.15186256 27577
TIANMU-1 12             
1 58646U 23205B   24176.13499507  .00005192  00000+0  27941-3 0  9991
2 58646  97.4006 200.9755 0010287  23.9141 336.2567 15.15225361 27555
TIANMU-1 13             
1 58647U 23205C   24176.16771888  .00005144  00000+0  27698-3 0  9996
2 58647  97.4033 201.0040 0009716   9.4090 350.7323 15.15218525 27557
TIANMU-1 14             
1 58648U 23205D   24176.21761225  .00005566  00000+0  29934-3 0  9990
2 58648  97.3959 200.9106 0010198   9.2248 350.9169 15.15222415 27568
TIANMU-1 19             
1 58660U 23208A   24176.22486253  .00005231  00000+0  28207-3 0  9994
2 58660  97.4127 288.4389 0008487 349.5631  10.5424 15.15171058 27231
TIANMU-1 20             
1 58661U 23208B   24176.15872062  .00005157  00000+0  27190-3 0  9991
2 58661  97.4055 288.3498 0009542 359.6970   0.4255 15.15965158 27235
TIANMU-1 21             
1 58662U 23208C   24176.21358459  .00005980  00000+0  30688-3 0  9998
2 58662  97.4093 288.6747 0009164 359.5841   0.5383 15.16861990 27259
TIANMU-1 22             
1 58663U 23208D   24176.24142629  .00005711  00000+0  30790-3 0  9998
2 58663  97.4114 288.5294 0005223  19.8385 340.3050 15.15150352 27248
TIANMU-1 15             
1 58700U 24004A   24176.14988254  .00004578  00000+0  24755-3 0  9990
2 58700  97.4620 357.1251 0010627  36.7015 323.4943 15.15125572 25821
TIANMU-1 16             
1 58701U 24004B   24176.19866345  .00005086  00000+0  27428-3 0  9997
2 58701  97.4547 357.0467 0010741  41.7170 318.4880 15.15160891 25831
TIANMU-1 17             
1 58702U 24004C   24176.18368599  .00005372  00000+0  28986-3 0  9993
2 58702  97.4590 357.1651 0008470  38.6815 321.5022 15.15136043 25827
TIANMU-1 18             
1 58703U 24004D   24176.16679471  .00004883  00000+0  26364-3 0  9990
2 58703  97.4607 357.2218 0007480  30.9239 329.2432 15.15167082 25829
INSAT-3DS               
1 58990U 24033A   24171.63670715 -.00000142  00000+0  00000+0 0  9999
2 58990   0.0159 349.8168 0010402 105.1251 125.6022  1.00268037   992
METEOR-M2 4             
1 59051U 24039A   24176.16994564  .00000042  00000+0  38146-4 0  9993
2 59051  98.5978 137.8913 0008235 102.1092 258.1009 14.22233632 16485
PREFIRE-2               
1 59881U 24099A   24175.79986484  .00003475  00000+0  20526-3 0  9995
2 59881  97.4953  33.1105 0013943 194.9431 165.1390 15.12082907  4457
